{"type":"FeatureCollection","features":[{"type":"Feature","geometry":{"type":"Polygon","coordinates":[[[-90.3998,14.8821],[-90.4244,14.9138],[-90.4427,14.8818],[-90.4992,14.8943],[-90.579,14.869],[-90.622,14.8764],[-90.6923,14.8357],[-90.6885,14.7983],[-90.7624,14.7317],[-90.7346,14.6945],[-90.6758,14.7],[-90.6731,14.6675],[-90.6385,14.6523],[-90.6364,14.5993],[-90.6129,14.588],[-90.633,14.5627],[-90.667,14.5823],[-90.6488,14.5587],[-90.6735,14.4799],[-90.6432,14.4272],[-90.5992,14.4169],[-90.5979,14.3638],[-90.6144,14.3326],[-90.5846,14.2887],[-90.5889,14.2417],[-90.5045,14.2905],[-90.5142,14.3079],[-90.4867,14.3603],[-90.4504,14.3645],[-90.4549,14.3994],[-90.4217,14.419],[-90.4024,14.4888],[-90.3894,14.474],[-90.3477,14.4783],[-90.2627,14.5293],[-90.2741,14.5799],[-90.2451,14.5898],[-90.2273,14.6612],[-90.2121,14.6675],[-90.3256,14.7216],[-90.3479,14.7683],[-90.3261,14.8223],[-90.403,14.8443],[-90.3998,14.8821]]]},"properties":{"depto":"Guatemala"}},{"type":"Feature","geometry":{"type":"Polygon","coordinates":[[[-89.9396,15.1393],[-89.964,15.1519],[-90.0394,15.1148],[-90.3175,14.9124],[-90.3081,14.8776],[-90.4043,14.8667],[-90.403,14.8443],[-90.3261,14.8223],[-90.3479,14.7683],[-90.3256,14.7216],[-90.209,14.668],[-90.1078,14.7126],[-90.0641,14.7012],[-90.0384,14.7675],[-90.0125,14.7723],[-90.0229,14.7855],[-90.0081,14.7854],[-90.003,14.8079],[-89.9568,14.7944],[-89.9292,14.82],[-89.9406,14.833],[-89.9313,14.8461],[-89.8585,14.872],[-89.8178,14.9042],[-89.815,14.9464],[-89.8499,14.9504],[-89.8469,14.9819],[-89.873,15.0201],[-89.7893,15.0191],[-89.8997,15.1376],[-89.9396,15.1393]]]},"properties":{"depto":"El Progreso"}},{"type":"Feature","geometry":{"type":"Polygon","coordinates":[[[-90.7357,14.695],[-90.759,14.7241],[-90.7732,14.6901],[-90.7624,14.657],[-90.7925,14.6236],[-90.8067,14.5709],[-90.8539,14.5622],[-90.8717,14.5316],[-90.8808,14.4698],[-90.8396,14.4339],[-90.8083,14.3756],[-90.7806,14.4388],[-90.7467,14.461],[-90.7075,14.4337],[-90.6681,14.4349],[-90.672,14.4971],[-90.6488,14.5587],[-90.668,14.58],[-90.6346,14.5626],[-90.6314,14.5794],[-90.6128,14.5818],[-90.6371,14.601],[-90.6385,14.6523],[-90.6731,14.6675],[-90.6758,14.7],[-90.7357,14.695]]]},"properties":{"depto":"Sacatepéquez"}},{"type":"Feature","geometry":{"type":"Polygon","coordinates":[[[-90.999,14.9371],[-91.028,14.9086],[-91.025,14.8796],[-91.0452,14.8459],[-91.0198,14.8244],[-91.0723,14.805],[-91.0844,14.7685],[-91.0759,14.6964],[-91.1106,14.6266],[-91.1284,14.4582],[-91.0955,14.453],[-91.1007,14.4014],[-91.0485,14.4312],[-91.0329,14.4097],[-91.0025,14.4415],[-90.9802,14.3723],[-90.9219,14.4475],[-90.8808,14.4698],[-90.8539,14.5622],[-90.8067,14.5709],[-90.7925,14.6236],[-90.7624,14.657],[-90.7732,14.6901],[-90.7624,14.7317],[-90.6885,14.7983],[-90.6941,14.8333],[-90.6192,14.8761],[-90.7577,14.9249],[-90.874,14.9347],[-90.9195,14.9189],[-90.999,14.9371]]]},"properties":{"depto":"Chimaltenango"}},{"type":"Feature","geometry":{"type":"Polygon","coordinates":[[[-90.871,14.46],[-90.8808,14.4698],[-90.9156,14.4531],[-90.9802,14.3723],[-91.0043,14.442],[-91.0329,14.4097],[-91.0485,14.4312],[-91.1155,14.4058],[-91.1365,14.3782],[-91.1265,14.3326],[-91.1547,14.2853],[-91.1536,14.2344],[-91.1789,14.2005],[-91.2182,14.2072],[-91.1996,14.2927],[-91.2672,14.3047],[-91.2661,14.3367],[-91.354,14.3181],[-91.3692,14.3335],[-91.3686,14.3097],[-91.4272,14.2817],[-91.4455,14.3183],[-91.4641,14.2988],[-91.4479,14.1983],[-91.533,14.0825],[-91.5386,14.0435],[-91.321,13.955],[-91.1731,13.9244],[-90.9066,13.9097],[-90.7831,13.9133],[-90.7981,13.9203],[-90.7898,13.9265],[-90.6592,13.9241],[-90.6752,14.0209],[-90.6595,14.0276],[-90.6636,14.0494],[-90.6368,14.0498],[-90.6444,14.1342],[-90.6068,14.1702],[-90.5917,14.2276],[-90.6032,14.2378],[-90.5962,14.257],[-90.5889,14.2417],[-90.5794,14.2554],[-90.6144,14.3326],[-90.5979,14.3638],[-90.5992,14.4169],[-90.6432,14.4272],[-90.6598,14.4627],[-90.6804,14.4271],[-90.7467,14.461],[-90.7806,14.4388],[-90.8083,14.3756],[-90.871,14.46]]]},"properties":{"depto":"Escuintla"}},{"type":"Feature","geometry":{"type":"Polygon","coordinates":[[[-90.2982,14.5003],[-90.3477,14.4783],[-90.3894,14.474],[-90.4024,14.4888],[-90.4217,14.419],[-90.4549,14.3994],[-90.4504,14.3645],[-90.4867,14.3603],[-90.5142,14.3079],[-90.5045,14.2905],[-90.5816,14.2416],[-90.5962,14.257],[-90.6003,14.1861],[-90.6444,14.1342],[-90.6368,14.0498],[-90.6636,14.0494],[-90.6595,14.0276],[-90.6752,14.0209],[-90.6592,13.9241],[-90.4824,13.8875],[-90.3427,13.8414],[-90.2384,13.7875],[-90.2412,13.8303],[-90.2099,13.8282],[-90.2052,13.8399],[-90.2233,13.8421],[-90.2018,13.8678],[-90.2317,13.9194],[-90.2903,13.9525],[-90.2969,13.9849],[-90.2261,14.0101],[-90.1657,13.9896],[-90.1648,13.9712],[-90.1285,14.0036],[-90.1817,14.029],[-90.1429,14.0767],[-90.0823,14.0656],[-90.0636,14.1121],[-90.0904,14.1531],[-90.0675,14.1802],[-90.1937,14.2606],[-90.2095,14.2523],[-90.2109,14.2945],[-90.1914,14.2932],[-90.1857,14.3333],[-90.1338,14.3309],[-90.1347,14.3496],[-90.066,14.3363],[-90.0774,14.3822],[-90.0579,14.4194],[-90.1215,14.4637],[-90.1283,14.4879],[-90.2362,14.4835],[-90.2424,14.4662],[-90.2729,14.501],[-90.2982,14.5003]]]},"properties":{"depto":"Santa Rosa"}},{"type":"Feature","geometry":{"type":"Polygon","coordinates":[[[-91.1475,14.8664],[-91.1765,14.8955],[-91.2068,14.8826],[-91.2122,14.8589],[-91.2628,14.844],[-91.2758,14.8614],[-91.3019,14.855],[-91.3073,14.8749],[-91.3373,14.8747],[-91.4042,14.8218],[-91.4461,14.7437],[-91.485,14.718],[-91.4816,14.644],[-91.5065,14.5992],[-91.4506,14.5991],[-91.4326,14.6337],[-91.4086,14.6418],[-91.3854,14.633],[-91.3569,14.6448],[-91.3422,14.6308],[-91.3216,14.6469],[-91.3155,14.63],[-91.3315,14.6195],[-91.293,14.5962],[-91.2742,14.5253],[-91.206,14.5797],[-91.1342,14.5463],[-91.1215,14.5226],[-91.1106,14.6266],[-91.0759,14.6964],[-91.0869,14.7548],[-91.0723,14.805],[-91.0846,14.8142],[-91.1045,14.7821],[-91.1314,14.7955],[-91.1025,14.8354],[-91.1475,14.8664]]]},"properties":{"depto":"Sololá"}},{"type":"Feature","geometry":{"type":"Polygon","coordinates":[[[-91.3161,15.2502],[-91.3821,15.2117],[-91.3873,15.14],[-91.5115,15.1452],[-91.5491,15.112],[-91.529,14.9585],[-91.5542,14.9388],[-91.5262,14.945],[-91.4992,14.8838],[-91.4404,14.8909],[-91.4459,14.8621],[-91.4042,14.8218],[-91.3373,14.8747],[-91.3073,14.8749],[-91.3019,14.855],[-91.2758,14.8614],[-91.2628,14.844],[-91.2122,14.8589],[-91.2068,14.8826],[-91.1765,14.8955],[-91.2193,14.946],[-91.241,14.9458],[-91.2326,14.9801],[-91.2547,14.9809],[-91.2729,15.0352],[-91.261,15.1256],[-91.2303,15.1039],[-91.2058,15.1118],[-91.3197,15.2014],[-91.3161,15.2502]]]},"properties":{"depto":"Totonicapán"}},{"type":"Feature","geometry":{"type":"Polygon","coordinates":[[[-91.5145,15.1704],[-91.5198,15.2067],[-91.5684,15.2252],[-91.5868,15.1702],[-91.6853,15.1384],[-91.7032,15.1016],[-91.6601,15.0571],[-91.6752,14.9531],[-91.7255,14.923],[-91.7128,14.8993],[-91.7568,14.8718],[-91.7915,14.7366],[-91.8367,14.7165],[-91.9284,14.7298],[-91.9564,14.7126],[-92.0246,14.7177],[-92.0823,14.6859],[-92.1377,14.6159],[-92.0505,14.5844],[-92.0504,14.5652],[-91.9916,14.536],[-91.8068,14.4929],[-91.7834,14.5862],[-91.7544,14.5881],[-91.7321,14.6743],[-91.7126,14.6585],[-91.703,14.6891],[-91.6655,14.7126],[-91.6817,14.6414],[-91.6556,14.6529],[-91.6534,14.6065],[-91.6258,14.6528],[-91.6076,14.6527],[-91.6094,14.6282],[-91.5959,14.6295],[-91.4483,14.741],[-91.4041,14.8191],[-91.4459,14.8621],[-91.4393,14.8898],[-91.4992,14.8838],[-91.5262,14.945],[-91.5542,14.9388],[-91.529,14.9585],[-91.5491,15.112],[-91.5115,15.1452],[-91.5145,15.1704]]]},"properties":{"depto":"Quetzaltenango"}},{"type":"Feature","geometry":{"type":"Polygon","coordinates":[[[-91.4882,14.6806],[-91.4901,14.7053],[-91.5389,14.672],[-91.5558,14.6418],[-91.5419,14.6283],[-91.5883,14.5359],[-91.5807,14.4434],[-91.6007,14.3441],[-91.5874,14.3398],[-91.6242,14.2678],[-91.624,14.2064],[-91.6663,14.1233],[-91.5386,14.0435],[-91.533,14.0825],[-91.4476,14.199],[-91.4598,14.3088],[-91.4356,14.3201],[-91.4272,14.2817],[-91.3686,14.3097],[-91.3692,14.3335],[-91.354,14.3181],[-91.2661,14.3367],[-91.2672,14.3047],[-91.1996,14.2927],[-91.2182,14.2072],[-91.1789,14.2005],[-91.1536,14.2344],[-91.1547,14.2853],[-91.1265,14.3326],[-91.1361,14.3792],[-91.1003,14.4171],[-91.0933,14.4481],[-91.1284,14.4582],[-91.119,14.4954],[-91.1338,14.5459],[-91.1983,14.5787],[-91.2742,14.5253],[-91.293,14.5962],[-91.3315,14.6195],[-91.3155,14.63],[-91.3216,14.6469],[-91.3422,14.6308],[-91.3569,14.6448],[-91.4207,14.6386],[-91.4506,14.5991],[-91.4982,14.5938],[-91.4816,14.644],[-91.4882,14.6806]]]},"properties":{"depto":"Suchitepéquez"}},{"type":"Feature","geometry":{"type":"Polygon","coordinates":[[[-91.6662,14.7089],[-91.703,14.6891],[-91.7126,14.6585],[-91.7331,14.6735],[-91.7544,14.5881],[-91.7834,14.5862],[-91.8063,14.4931],[-91.9879,14.5347],[-92.0607,14.5673],[-92.1038,14.5319],[-92.1079,14.5007],[-92.1349,14.5086],[-92.1636,14.4862],[-91.7866,14.19],[-91.6663,14.1233],[-91.624,14.2064],[-91.6242,14.2678],[-91.5874,14.3398],[-91.6007,14.3441],[-91.5807,14.4434],[-91.5882,14.5372],[-91.5419,14.6283],[-91.5553,14.643],[-91.5165,14.6846],[-91.602,14.6267],[-91.6076,14.6527],[-91.6258,14.6528],[-91.6534,14.6065],[-91.6556,14.6529],[-91.6817,14.6414],[-91.6662,14.7089]]]},"properties":{"depto":"Retalhuleu"}},{"type":"Feature","geometry":{"type":"Polygon","coordinates":[[[-92.0941,15.3998],[-92.1178,15.4228],[-92.2107,15.2594],[-92.0594,15.0686],[-92.0849,15.0212],[-92.1311,15.0119],[-92.1505,14.9868],[-92.1367,14.8887],[-92.1827,14.8291],[-92.1449,14.6632],[-92.1754,14.6334],[-92.1933,14.5643],[-92.2208,14.5352],[-92.2402,14.5425],[-92.1636,14.4862],[-92.1349,14.5086],[-92.1079,14.5007],[-92.1038,14.5319],[-92.0486,14.5661],[-92.0505,14.5844],[-92.1393,14.6187],[-92.0812,14.6867],[-92.0246,14.7177],[-91.9564,14.7126],[-91.9284,14.7298],[-91.8367,14.7165],[-91.7884,14.74],[-91.7568,14.8718],[-91.7128,14.8993],[-91.7255,14.923],[-91.6746,14.9557],[-91.6601,15.0571],[-91.703,15.1089],[-91.6769,15.1434],[-91.5868,15.1702],[-91.5684,15.2238],[-91.6244,15.236],[-91.7102,15.3389],[-91.7398,15.3483],[-91.8222,15.3295],[-91.8812,15.3613],[-91.9563,15.32],[-92.0088,15.264],[-92.0768,15.2767],[-92.0781,15.3917],[-92.0941,15.3998]]]},"properties":{"depto":"San Marcos"}},{"type":"Feature","geometry":{"type":"Polygon","coordinates":[[[-91.1076,16.0734],[-91.7312,16.0728],[-92.1178,15.4228],[-92.0787,15.3957],[-92.0768,15.2767],[-92.0088,15.264],[-91.9563,15.32],[-91.8812,15.3613],[-91.8222,15.3295],[-91.7302,15.3471],[-91.6244,15.236],[-91.585,15.2361],[-91.5198,15.2067],[-91.5115,15.1452],[-91.4684,15.138],[-91.3873,15.14],[-91.3821,15.2117],[-91.3273,15.2378],[-91.3264,15.2685],[-91.1882,15.2844],[-91.159,15.3653],[-91.1713,15.3855],[-91.2404,15.3784],[-91.3052,15.4277],[-91.3195,15.4624],[-91.3195,15.5546],[-91.2737,15.5846],[-91.2947,15.598],[-91.2794,15.6177],[-91.2337,15.6304],[-91.2329,15.6497],[-91.2153,15.6441],[-91.2215,15.6609],[-91.1654,15.6992],[-91.1397,15.7747],[-91.1695,15.7977],[-91.1474,15.8186],[-91.1525,15.8311],[-91.0926,15.7999],[-91.0471,15.9367],[-91.0674,15.9451],[-91.0612,15.9689],[-91.0946,15.9686],[-91.1295,16.0008],[-91.132,16.0299],[-91.1072,16.0518],[-91.1076,16.0734]]]},"properties":{"depto":"Huehuetenango"}},{"type":"Feature","geometry":{"type":"Polygon","coordinates":[[[-90.4343,16.0618],[-90.4445,16.0728],[-91.1076,16.0734],[-91.1072,16.0518],[-91.132,16.0299],[-91.129,15.9998],[-91.0946,15.9686],[-91.0612,15.9689],[-91.0674,15.9451],[-91.0471,15.9367],[-91.0915,15.8027],[-91.1525,15.8311],[-91.1474,15.8186],[-91.1695,15.7977],[-91.1397,15.7747],[-91.1654,15.6992],[-91.2215,15.6609],[-91.2153,15.6441],[-91.2329,15.6497],[-91.2337,15.6304],[-91.2794,15.6177],[-91.2947,15.598],[-91.2737,15.5846],[-91.3195,15.5546],[-91.3195,15.4624],[-91.3052,15.4277],[-91.2404,15.3784],[-91.1713,15.3855],[-91.158,15.3616],[-91.1882,15.2844],[-91.327,15.267],[-91.3111,15.2453],[-91.3197,15.2014],[-91.2058,15.1118],[-91.2303,15.1039],[-91.261,15.1256],[-91.2667,15.0006],[-91.2547,14.9809],[-91.2326,14.9801],[-91.241,14.9458],[-91.2193,14.946],[-91.1572,14.873],[-91.1052,14.84],[-91.1359,14.8048],[-91.1167,14.785],[-91.103,14.7827],[-91.0846,14.8142],[-91.0723,14.805],[-91.0211,14.8224],[-91.0452,14.8459],[-91.025,14.8796],[-91.028,14.9086],[-90.999,14.9371],[-90.9195,14.9189],[-90.874,14.9347],[-90.7697,14.9267],[-90.622,14.8847],[-90.6156,14.9138],[-90.6599,14.9648],[-90.6577,15.0025],[-90.7555,15.0742],[-90.8068,15.1552],[-90.8147,15.2352],[-90.7552,15.2222],[-90.7331,15.2653],[-90.7531,15.2778],[-90.7447,15.3012],[-90.717,15.2844],[-90.6772,15.3507],[-90.6342,15.3101],[-90.6304,15.2493],[-90.556,15.2466],[-90.5443,15.2062],[-90.4954,15.2659],[-90.4812,15.3079],[-90.5032,15.3337],[-90.6389,15.3472],[-90.7083,15.3795],[-90.7176,15.4194],[-90.7016,15.4425],[-90.6648,15.4335],[-90.6504,15.446],[-90.64,15.4829],[-90.6042,15.5042],[-90.6079,15.5373],[-90.6416,15.5815],[-90.63,15.6097],[-90.6552,15.6472],[-90.7929,15.6775],[-90.771,15.7021],[-90.7967,15.7177],[-90.7788,15.7238],[-90.7835,15.7409],[-90.8202,15.7474],[-90.7682,15.8288],[-90.73,15.8591],[-90.7405,15.8839],[-90.7582,15.8828],[-90.734,15.9395],[-90.7585,15.9612],[-90.7333,15.9827],[-90.7034,15.9722],[-90.7016,16.0186],[-90.6687,16.0388],[-90.6343,16.0397],[-90.6147,16.0231],[-90.5994,16.0359],[-90.6086,16.0113],[-90.5856,16.0125],[-90.5639,15.9882],[-90.5508,16.0048],[-90.53,15.9917],[-90.5203,16.0014],[-90.5222,15.9885],[-90.5012,15.9977],[-90.5107,15.9811],[-90.4868,16.0152],[-90.4689,16.0031],[-90.4399,16.0293],[-90.4255,16.0217],[-90.4448,16.0416],[-90.419,16.0659],[-90.4343,16.0618]]]},"properties":{"depto":"Quiché"}},{"type":"Feature","geometry":{"type":"Polygon","coordinates":[[[-90.6328,15.291],[-90.6342,15.3101],[-90.6772,15.3507],[-90.717,15.2844],[-90.7447,15.3012],[-90.7531,15.2778],[-90.7331,15.2653],[-90.7552,15.2222],[-90.8147,15.2352],[-90.8046,15.1514],[-90.7555,15.0742],[-90.6577,15.0025],[-90.6599,14.9648],[-90.6156,14.9138],[-90.6198,14.877],[-90.5927,14.8707],[-90.4992,14.8943],[-90.4427,14.8818],[-90.4244,14.9138],[-90.3927,14.8725],[-90.3081,14.8776],[-90.3175,14.9124],[-90.0214,15.1274],[-89.964,15.1519],[-89.9053,15.1355],[-89.8517,15.1603],[-89.8681,15.1947],[-89.8605,15.2713],[-89.896,15.2765],[-89.8909,15.3031],[-89.9174,15.3012],[-89.9474,15.2715],[-90.3014,15.2632],[-90.3336,15.2302],[-90.4114,15.2858],[-90.4776,15.2882],[-90.5443,15.2062],[-90.556,15.2466],[-90.6304,15.2493],[-90.6328,15.291]]]},"properties":{"depto":"Baja Verapaz"}},{"type":"Feature","geometry":{"type":"Polygon","coordinates":[[[-90.4445,16.0728],[-90.4193,16.0667],[-90.4448,16.0416],[-90.4255,16.0217],[-90.4399,16.0293],[-90.4689,16.0031],[-90.4868,16.0152],[-90.51,15.9812],[-90.5018,15.998],[-90.5222,15.9885],[-90.5203,16.0014],[-90.53,15.9917],[-90.5508,16.0048],[-90.5645,15.9883],[-90.5856,16.0125],[-90.6096,16.012],[-90.5952,16.0191],[-90.5987,16.0357],[-90.6147,16.0231],[-90.6535,16.0409],[-90.7016,16.0186],[-90.7034,15.9722],[-90.7333,15.9827],[-90.7585,15.9612],[-90.734,15.9395],[-90.7582,15.8828],[-90.7411,15.8844],[-90.7298,15.86],[-90.7682,15.8288],[-90.8201,15.7467],[-90.7835,15.7409],[-90.7788,15.7238],[-90.7967,15.7177],[-90.771,15.7021],[-90.7929,15.6775],[-90.6552,15.6472],[-90.63,15.6097],[-90.6416,15.5815],[-90.6209,15.5707],[-90.6043,15.5166],[-90.6628,15.4343],[-90.7021,15.4422],[-90.7177,15.4188],[-90.7075,15.3785],[-90.6389,15.3472],[-90.5008,15.3328],[-90.4809,15.3069],[-90.491,15.2802],[-90.4114,15.2858],[-90.3336,15.2302],[-90.3014,15.2632],[-89.9474,15.2715],[-89.9174,15.3012],[-89.8909,15.3031],[-89.896,15.2765],[-89.8595,15.2663],[-89.8638,15.1661],[-89.7858,15.1682],[-89.772,15.1457],[-89.7227,15.1481],[-89.6702,15.1185],[-89.6728,15.1483],[-89.6531,15.1663],[-89.6268,15.1606],[-89.576,15.2409],[-89.5667,15.3084],[-89.5364,15.312],[-89.5465,15.3431],[-89.512,15.3625],[-89.5245,15.3794],[-89.5141,15.4148],[-89.5329,15.4235],[-89.5164,15.452],[-89.5891,15.477],[-89.5669,15.498],[-89.583,15.5208],[-89.5363,15.6353],[-89.4084,15.8469],[-89.4153,15.86],[-89.4577,15.8477],[-89.4653,15.8616],[-89.4999,15.8455],[-89.5018,16.0439],[-89.5118,16.0356],[-89.5282,16.053],[-89.583,16.0104],[-89.5969,16.0198],[-89.5944,16.0066],[-89.6331,16.017],[-89.6519,15.9732],[-89.687,15.9829],[-89.7038,15.96],[-89.7443,15.9558],[-89.7601,15.9211],[-89.8581,15.9043],[-89.8706,15.934],[-89.8968,15.9463],[-89.8917,15.9652],[-89.9021,15.953],[-89.9284,15.9735],[-89.9481,15.9666],[-89.9793,16.0146],[-89.9816,15.9897],[-89.992,16.0014],[-90.0141,15.9919],[-90.0128,16.0098],[-90.0356,16.0158],[-90.0472,15.9926],[-90.0456,16.0224],[-90.0632,16.0235],[-90.0516,16.048],[-90.0726,16.0713],[-90.1272,16.0217],[-90.4445,16.0728]]]},"properties":{"depto":"Alta Verapaz"}},{"type":"Feature","geometry":{"type":"Polygon","coordinates":[[[-89.1526,17.2215],[-89.1569,17.8156],[-90.9877,17.8154],[-90.9873,17.2513],[-91.4391,17.2509],[-91.4295,17.215],[-91.3579,17.1907],[-91.3495,17.1578],[-91.3258,17.1826],[-91.267,17.1694],[-91.269,17.1087],[-91.2286,17.0963],[-91.2149,17.0528],[-91.1774,17.0146],[-91.1229,17.0006],[-91.1229,16.9759],[-91.0674,16.9255],[-91.0665,16.9005],[-91.0062,16.8835],[-90.9873,16.8612],[-90.9856,16.8968],[-90.9632,16.8988],[-90.9559,16.8817],[-90.9753,16.8621],[-90.9368,16.8598],[-90.9207,16.8183],[-90.8814,16.8233],[-90.8534,16.7951],[-90.8046,16.7981],[-90.8033,16.7754],[-90.7137,16.7261],[-90.6569,16.6386],[-90.6534,16.5946],[-90.6667,16.5816],[-90.6454,16.579],[-90.6411,16.596],[-90.6259,16.5782],[-90.6468,16.5612],[-90.6457,16.5191],[-90.6154,16.5215],[-90.6058,16.5032],[-90.6339,16.4806],[-90.5943,16.4904],[-90.5857,16.4696],[-90.5448,16.4818],[-90.5464,16.4672],[-90.5266,16.4577],[-90.5154,16.4701],[-90.4964,16.4542],[-90.4792,16.46],[-90.4853,16.4239],[-90.3878,16.4122],[-90.4026,16.394],[-90.371,16.3651],[-90.409,16.3651],[-90.4114,16.348],[-90.4039,16.3614],[-90.3829,16.3377],[-90.4116,16.3283],[-90.4124,16.3072],[-90.4384,16.3029],[-90.4412,16.2809],[-90.423,16.2603],[-90.4557,16.2484],[-90.4286,16.2327],[-90.4576,16.2069],[-90.4254,16.1638],[-90.4515,16.1497],[-90.4303,16.14],[-90.4301,16.1218],[-90.4533,16.1247],[-90.4568,16.0942],[-90.4253,16.102],[-90.4445,16.0728],[-90.1272,16.0217],[-90.0726,16.0713],[-90.0516,16.048],[-90.0632,16.0235],[-90.0456,16.0224],[-90.0472,15.9926],[-90.0356,16.0158],[-90.0128,16.0098],[-90.0141,15.9919],[-89.992,16.0014],[-89.9816,15.9897],[-89.9793,16.0146],[-89.9481,15.9666],[-89.9284,15.9735],[-89.9021,15.953],[-89.8917,15.9652],[-89.8968,15.9463],[-89.8706,15.934],[-89.8579,15.9043],[-89.7602,15.921],[-89.7313,15.9652],[-89.7038,15.96],[-89.6867,15.983],[-89.6519,15.9732],[-89.6344,16.0163],[-89.5911,16.0074],[-89.5969,16.0198],[-89.583,16.0104],[-89.528,16.0529],[-89.4995,16.0384],[-89.4999,15.8455],[-89.4791,15.8613],[-89.4438,15.8476],[-89.392,15.8614],[-89.3778,15.9055],[-89.3551,15.9204],[-89.2648,15.9201],[-89.2242,15.8916],[-89.1537,17.0114],[-89.1526,17.2215]]]},"properties":{"depto":"Petén"}},{"type":"Feature","geometry":{"type":"Polygon","coordinates":[[[-88.5327,15.9247],[-88.5835,15.9588],[-88.623,15.9625],[-88.6126,15.9349],[-88.5648,15.9107],[-88.5488,15.8788],[-88.4912,15.8488],[-88.4983,15.8345],[-88.5442,15.8471],[-88.5522,15.8356],[-88.5651,15.8529],[-88.5547,15.8107],[-88.5809,15.7474],[-88.6058,15.7339],[-88.6009,15.6994],[-88.6448,15.6965],[-88.6273,15.7516],[-88.7266,15.8145],[-88.7792,15.8008],[-88.7764,15.7737],[-88.8299,15.7704],[-88.8894,15.6847],[-88.9362,15.6943],[-88.9504,15.6677],[-88.992,15.6649],[-88.981,15.6211],[-89.005,15.5899],[-88.9833,15.5089],[-89.0357,15.4622],[-89.1289,15.4057],[-89.2602,15.4156],[-89.2694,15.4067],[-89.2446,15.4072],[-89.3054,15.3529],[-89.3358,15.3721],[-89.3301,15.417],[-89.3524,15.4076],[-89.3215,15.427],[-89.346,15.4593],[-89.3645,15.4497],[-89.3545,15.4697],[-89.3948,15.4509],[-89.3916,15.4731],[-89.4121,15.4535],[-89.3748,15.5069],[-89.3131,15.5305],[-89.2671,15.52],[-89.2247,15.5715],[-89.1794,15.5789],[-89.1524,15.5634],[-89.0706,15.5882],[-89.0521,15.6159],[-88.9941,15.6351],[-89.0006,15.667],[-88.9515,15.6839],[-88.9503,15.7108],[-88.9248,15.7213],[-88.9286,15.7331],[-88.8734,15.7465],[-88.8492,15.7867],[-88.778,15.7763],[-88.7816,15.8012],[-88.7475,15.8256],[-88.8286,15.872],[-88.8821,15.861],[-88.9127,15.8983],[-89.0199,15.8936],[-89.019,15.909],[-89.0409,15.9138],[-89.0498,15.9009],[-89.055,15.9162],[-89.0634,15.8995],[-89.1026,15.9118],[-89.1138,15.8962],[-89.1327,15.9067],[-89.1497,15.896],[-89.1758,15.913],[-89.2211,15.8852],[-89.2347,15.9089],[-89.2654,15.9202],[-89.3675,15.9161],[-89.3833,15.8725],[-89.4032,15.8665],[-89.4157,15.828],[-89.448,15.7973],[-89.5821,15.524],[-89.5669,15.498],[-89.5891,15.477],[-89.5164,15.452],[-89.5329,15.4235],[-89.5141,15.4148],[-89.5245,15.3794],[-89.512,15.3625],[-89.5465,15.3431],[-89.5379,15.3103],[-89.5667,15.3084],[-89.576,15.2409],[-89.6268,15.1606],[-89.5635,15.1804],[-89.5354,15.1731],[-89.4212,15.2146],[-89.3627,15.2763],[-89.3087,15.2719],[-89.297,15.2916],[-89.2541,15.2964],[-89.2517,15.2821],[-89.2332,15.2953],[-89.2178,15.273],[-89.1897,15.2823],[-89.1756,15.2663],[-89.1746,15.2071],[-89.22,15.1805],[-89.1955,15.1715],[-89.1804,15.141],[-89.1866,15.1043],[-89.1543,15.0671],[-88.9754,15.1353],[-88.8474,15.2413],[-88.6763,15.3429],[-88.3462,15.6156],[-88.3249,15.6713],[-88.2822,15.6742],[-88.2843,15.6913],[-88.2491,15.6873],[-88.251,15.7196],[-88.2216,15.7226],[-88.2614,15.7358],[-88.5327,15.9247]]]},"properties":{"depto":"Izabal"}},{"type":"Feature","geometry":{"type":"Polygon","coordinates":[[[-89.2522,15.2933],[-89.297,15.2916],[-89.3087,15.2719],[-89.3749,15.271],[-89.4212,15.2146],[-89.5191,15.1775],[-89.5635,15.1804],[-89.6169,15.1592],[-89.6531,15.1663],[-89.6728,15.1483],[-89.6717,15.1177],[-89.7227,15.1481],[-89.772,15.1457],[-89.7858,15.1682],[-89.8971,15.1498],[-89.7893,15.0191],[-89.873,15.0201],[-89.8469,14.9819],[-89.8499,14.9504],[-89.814,14.9435],[-89.8178,14.9042],[-89.8415,14.8973],[-89.8626,14.8647],[-89.8201,14.8425],[-89.8261,14.8152],[-89.8123,14.7905],[-89.7686,14.7495],[-89.7298,14.7427],[-89.7035,14.7805],[-89.7063,14.8436],[-89.6644,14.8791],[-89.5907,14.855],[-89.5061,14.8602],[-89.482,14.894],[-89.4278,14.9051],[-89.3783,14.8935],[-89.3211,14.911],[-89.2727,14.8948],[-89.2235,14.9488],[-89.2005,14.9467],[-89.1794,14.9214],[-89.1559,14.9788],[-89.1839,15.0044],[-89.1529,15.0648],[-89.1866,15.1043],[-89.1804,15.141],[-89.1955,15.1715],[-89.22,15.1805],[-89.1746,15.2071],[-89.1756,15.2663],[-89.1897,15.2823],[-89.2178,15.273],[-89.2256,15.2922],[-89.2517,15.2821],[-89.2522,15.2933]]]},"properties":{"depto":"Zacapa"}},{"type":"Feature","geometry":{"type":"Polygon","coordinates":[[[-89.1907,14.9],[-89.1842,14.929],[-89.2235,14.9488],[-89.2762,14.8939],[-89.3211,14.911],[-89.3783,14.8935],[-89.4278,14.9051],[-89.482,14.894],[-89.502,14.8607],[-89.5907,14.855],[-89.6644,14.8791],[-89.7063,14.8436],[-89.7035,14.7805],[-89.7204,14.75],[-89.6727,14.7504],[-89.6719,14.6911],[-89.6452,14.683],[-89.6903,14.5716],[-89.6891,14.5388],[-89.6816,14.5299],[-89.644,14.5577],[-89.6214,14.5467],[-89.6236,14.5125],[-89.592,14.5037],[-89.5855,14.4745],[-89.5496,14.4857],[-89.5654,14.5094],[-89.5533,14.5249],[-89.5268,14.5105],[-89.4995,14.4741],[-89.5019,14.4444],[-89.5215,14.4259],[-89.5108,14.4063],[-89.4704,14.4274],[-89.4341,14.4108],[-89.3929,14.4496],[-89.3845,14.4268],[-89.3549,14.4214],[-89.3544,14.4678],[-89.3021,14.4936],[-89.2385,14.5841],[-89.1681,14.5699],[-89.152,14.5823],[-89.1571,14.6694],[-89.1319,14.7112],[-89.1665,14.7306],[-89.1691,14.774],[-89.2247,14.8338],[-89.2269,14.8823],[-89.1907,14.9]]]},"properties":{"depto":"Chiquimula"}},{"type":"Feature","geometry":{"type":"Polygon","coordinates":[[[-89.8742,14.8711],[-89.9313,14.8461],[-89.9406,14.833],[-89.9292,14.82],[-89.9568,14.7944],[-90.003,14.8079],[-90.0081,14.7854],[-90.0229,14.7855],[-90.0125,14.7723],[-90.0384,14.7675],[-90.0619,14.7022],[-90.1078,14.7126],[-90.2254,14.6637],[-90.2432,14.5929],[-90.2758,14.5753],[-90.2627,14.5293],[-90.2803,14.5282],[-90.2982,14.5003],[-90.2729,14.501],[-90.2424,14.4662],[-90.2362,14.4835],[-90.1283,14.4879],[-90.1215,14.4637],[-90.0579,14.4194],[-89.9402,14.4616],[-89.893,14.432],[-89.8895,14.4578],[-89.8357,14.4924],[-89.8402,14.5123],[-89.8207,14.5117],[-89.7905,14.4803],[-89.7119,14.4807],[-89.6921,14.4953],[-89.6813,14.5254],[-89.6926,14.5636],[-89.6451,14.6819],[-89.6719,14.6911],[-89.6727,14.7504],[-89.7686,14.7495],[-89.8261,14.8152],[-89.8201,14.8425],[-89.8742,14.8711]]]},"properties":{"depto":"Jalapa"}},{"type":"Feature","geometry":{"type":"Polygon","coordinates":[[[-89.6127,14.5026],[-89.6195,14.5447],[-89.644,14.5577],[-89.6816,14.5299],[-89.7104,14.481],[-89.7905,14.4803],[-89.8207,14.5117],[-89.8442,14.5112],[-89.8357,14.4924],[-89.8895,14.4578],[-89.893,14.432],[-89.9402,14.4616],[-90.0579,14.4194],[-90.0774,14.3822],[-90.066,14.3363],[-90.1334,14.35],[-90.1338,14.3309],[-90.1857,14.3333],[-90.1914,14.2932],[-90.2109,14.2945],[-90.2115,14.2558],[-90.1937,14.2606],[-90.0675,14.1802],[-90.0904,14.1531],[-90.0636,14.1121],[-90.0823,14.0656],[-90.1429,14.0767],[-90.1817,14.029],[-90.1285,14.0036],[-90.1648,13.9712],[-90.1657,13.9896],[-90.2261,14.0101],[-90.2969,13.9849],[-90.2903,13.9525],[-90.2317,13.9194],[-90.2018,13.8678],[-90.2233,13.8421],[-90.2052,13.8399],[-90.2099,13.8282],[-90.2412,13.8303],[-90.2384,13.7875],[-90.1032,13.7389],[-90.0927,13.7539],[-90.118,13.7831],[-90.1129,13.8318],[-90.0812,13.8745],[-90.0369,13.8956],[-90.0251,13.9357],[-89.961,13.9689],[-89.9071,14.0133],[-89.9046,14.0324],[-89.8656,14.0394],[-89.8557,14.0565],[-89.8181,14.061],[-89.7783,14.0325],[-89.7367,14.0311],[-89.7463,14.0595],[-89.726,14.118],[-89.6656,14.1846],[-89.5218,14.2219],[-89.5503,14.2705],[-89.5456,14.2942],[-89.5637,14.3135],[-89.5924,14.3102],[-89.5917,14.3262],[-89.5863,14.3459],[-89.5645,14.3503],[-89.5759,14.4134],[-89.541,14.4148],[-89.5358,14.3835],[-89.5205,14.383],[-89.51,14.4049],[-89.5215,14.4259],[-89.5019,14.4444],[-89.4996,14.4747],[-89.5492,14.5252],[-89.5651,14.5118],[-89.5501,14.4957],[-89.5608,14.479],[-89.5897,14.4763],[-89.592,14.5037],[-89.6127,14.5026]]]},"properties":{"depto":"Jutiapa"}}]}